{
  "type": "FeatureCollection",
  "features": [
    {
      "type": "Feature",
      "properties": {
        "norad_id": 58647,
        "name": "TIANMU-1 13",
        "group": "weather",
        "lat": 4.318239229433409,
        "lon": -160.33384255509282,
        "alt_km": 490.5184069887364,
        "timestamp": "2025-12-25T16:53:14.297027+00:00",
        "meta_object_name": "TIANMU-1 13",
        "meta_object_id": "2023-205C",
        "meta_epoch": "2025-12-25T08:14:38.214240",
        "meta_mean_motion": 15.24678549,
        "meta_eccentricity": 0.00066758,
        "meta_inclination": 97.3613,
        "meta_ra_of_asc_node": 18.7529,
        "meta_arg_of_pericenter": 212.3216,
        "meta_mean_anomaly": 147.7614,
        "meta_ephemeris_type": 0,
        "meta_classification_type": "U",
        "meta_norad_cat_id": 58647,
        "meta_element_set_no": 999,
        "meta_rev_at_epoch": 11099,
        "meta_bstar": 0.00028401584,
        "meta_mean_motion_dot": 6.953e-05,
        "meta_mean_motion_ddot": 0,
        "tle_line1": "1 58647U 23205C   25359.34349785  .00006953  00000+0  28402-3 0  9990",
        "tle_line2": "2 58647  97.3613  18.7529 0006675 212.3216 147.7614 15.24678549110995"
      },
      "geometry": {
        "type": "Point",
        "coordinates": [
          -160.33384255509282,
          4.318239229433409
        ]
      }
    },
    {
      "type": "Feature",
      "properties": {
        "norad_id": 58648,
        "name": "TIANMU-1 14",
        "group": "weather",
        "lat": -81.58125091031438,
        "lon": 137.6701661634698,
        "alt_km": 495.8167112150877,
        "timestamp": "2025-12-25T16:53:14.297043+00:00",
        "meta_object_name": "TIANMU-1 14",
        "meta_object_id": "2023-205D",
        "meta_epoch": "2025-12-25T06:16:25.499136",
        "meta_mean_motion": 15.24660798,
        "meta_eccentricity": 0.00073643,
        "meta_inclination": 97.3545,
        "meta_ra_of_asc_node": 18.0094,
        "meta_arg_of_pericenter": 218.7104,
        "meta_mean_anomaly": 141.3607,
        "meta_ephemeris_type": 0,
        "meta_classification_type": "U",
        "meta_norad_cat_id": 58648,
        "meta_element_set_no": 999,
        "meta_rev_at_epoch": 11098,
        "meta_bstar": 0.00027733921,
        "meta_mean_motion_dot": 6.785e-05,
        "meta_mean_motion_ddot": 0,
        "tle_line1": "1 58648U 23205D   25359.26140624  .00006785  00000+0  27734-3 0  9993",
        "tle_line2": "2 58648  97.3545  18.0094 0007364 218.7104 141.3607 15.24660798110980"
      },
      "geometry": {
        "type": "Point",
        "coordinates": [
          137.6701661634698,
          -81.58125091031438
        ]
      }
    },
    {
      "type": "Feature",
      "properties": {
        "norad_id": 58660,
        "name": "TIANMU-1 19",
        "group": "weather",
        "lat": -41.377219026421216,
        "lon": 117.32616811648582,
        "alt_km": 489.8375745371304,
        "timestamp": "2025-12-25T16:53:14.297059+00:00",
        "meta_object_name": "TIANMU-1 19",
        "meta_object_id": "2023-208A",
        "meta_epoch": "2025-12-25T07:38:25.470240",
        "meta_mean_motion": 15.28076761,
        "meta_eccentricity": 0.00048088,
        "meta_inclination": 97.4388,
        "meta_ra_of_asc_node": 110.3323,
        "meta_arg_of_pericenter": 199.5507,
        "meta_mean_anomaly": 160.5549,
        "meta_ephemeris_type": 0,
        "meta_classification_type": "U",
        "meta_norad_cat_id": 58660,
        "meta_element_set_no": 999,
        "meta_rev_at_epoch": 11074,
        "meta_bstar": 0.00038355608,
        "meta_mean_motion_dot": 0.00010434,
        "meta_mean_motion_ddot": 0,
        "tle_line1": "1 58660U 23208A   25359.31835035  .00010434  00000+0  38356-3 0  9991",
        "tle_line2": "2 58660  97.4388 110.3323 0004808 199.5507 160.5549 15.28076761110741"
      },
      "geometry": {
        "type": "Point",
        "coordinates": [
          117.32616811648582,
          -41.377219026421216
        ]
      }
    },
    {
      "type": "Feature",
      "properties": {
        "norad_id": 58661,
        "name": "TIANMU-1 20",
        "group": "weather",
        "lat": 82.26734499242659,
        "lon": 37.14316995066693,
        "alt_km": 473.17679602288536,
        "timestamp": "2025-12-25T16:53:14.297075+00:00",
        "meta_object_name": "TIANMU-1 20",
        "meta_object_id": "2023-208B",
        "meta_epoch": "2025-12-25T07:04:54.107616",
        "meta_mean_motion": 15.29266781,
        "meta_eccentricity": 0.00068213,
        "meta_inclination": 97.4326,
        "meta_ra_of_asc_node": 110.7688,
        "meta_arg_of_pericenter": 213.99,
        "meta_mean_anomaly": 146.0904,
        "meta_ephemeris_type": 0,
        "meta_classification_type": "U",
        "meta_norad_cat_id": 58661,
        "meta_element_set_no": 999,
        "meta_rev_at_epoch": 11081,
        "meta_bstar": 0.00036292,
        "meta_mean_motion_dot": 0.00010238,
        "meta_mean_motion_ddot": 0,
        "tle_line1": "1 58661U 23208B   25359.29507069  .00010238  00000+0  36292-3 0  9991",
        "tle_line2": "2 58661  97.4326 110.7688 0006821 213.9900 146.0904 15.29266781110813"
      },
      "geometry": {
        "type": "Point",
        "coordinates": [
          37.14316995066693,
          82.26734499242659
        ]
      }
    },
    {
      "type": "Feature",
      "properties": {
        "norad_id": 58662,
        "name": "TIANMU-1 21",
        "group": "weather",
        "lat": -30.43367025081223,
        "lon": -71.25757420087001,
        "alt_km": 472.0009820447158,
        "timestamp": "2025-12-25T16:53:14.297095+00:00",
        "meta_object_name": "TIANMU-1 21",
        "meta_object_id": "2023-208C",
        "meta_epoch": "2025-12-25T06:33:50.012928",
        "meta_mean_motion": 15.31816484,
        "meta_eccentricity": 0.00064823,
        "meta_inclination": 97.4376,
        "meta_ra_of_asc_node": 112.7123,
        "meta_arg_of_pericenter": 208.5271,
        "meta_mean_anomaly": 151.5616,
        "meta_ephemeris_type": 0,
        "meta_classification_type": "U",
        "meta_norad_cat_id": 58662,
        "meta_element_set_no": 999,
        "meta_rev_at_epoch": 11091,
        "meta_bstar": 0.0004030377,
        "meta_mean_motion_dot": 0.00012317,
        "meta_mean_motion_ddot": 0,
        "tle_line1": "1 58662U 23208C   25359.27349552  .00012317  00000+0  40304-3 0  9990",
        "tle_line2": "2 58662  97.4376 112.7123 0006482 208.5271 151.5616 15.31816484110915"
      },
      "geometry": {
        "type": "Point",
        "coordinates": [
          -71.25757420087001,
          -30.43367025081223
        ]
      }
    },
    {
      "type": "Feature",
      "properties": {
        "norad_id": 58663,
        "name": "TIANMU-1 22",
        "group": "weather",
        "lat": -51.80729401657423,
        "lon": 120.32907198882744,
        "alt_km": 489.1868053190701,
        "timestamp": "2025-12-25T16:53:14.297113+00:00",
        "meta_object_name": "TIANMU-1 22",
        "meta_object_id": "2023-208D",
        "meta_epoch": "2025-12-25T06:06:47.921184",
        "meta_mean_motion": 15.27812815,
        "meta_eccentricity": 0.00029946,
        "meta_inclination": 97.4382,
        "meta_ra_of_asc_node": 110.322,
        "meta_arg_of_pericenter": 223.1526,
        "meta_mean_anomaly": 136.9479,
        "meta_ephemeris_type": 0,
        "meta_classification_type": "U",
        "meta_norad_cat_id": 58663,
        "meta_element_set_no": 999,
        "meta_rev_at_epoch": 11074,
        "meta_bstar": 0.00035850474,
        "meta_mean_motion_dot": 9.667e-05,
        "meta_mean_motion_ddot": 0,
        "tle_line1": "1 58663U 23208D   25359.25472131  .00009667  00000+0  35850-3 0  9993",
        "tle_line2": "2 58663  97.4382 110.3220 0002994 223.1526 136.9479 15.27812815110749"
      },
      "geometry": {
        "type": "Point",
        "coordinates": [
          120.32907198882744,
          -51.80729401657423
        ]
      }
    },
    {
      "type": "Feature",
      "properties": {
        "norad_id": 58700,
        "name": "TIANMU-1 15",
        "group": "weather",
        "lat": -71.21792320181281,
        "lon": -156.20338080604006,
        "alt_km": 496.7929759603685,
        "timestamp": "2025-12-25T16:53:14.297129+00:00",
        "meta_object_name": "TIANMU-1 15",
        "meta_object_id": "2024-004A",
        "meta_epoch": "2025-12-25T07:45:16.284096",
        "meta_mean_motion": 15.24571456,
        "meta_eccentricity": 0.00060835,
        "meta_inclination": 97.4629,
        "meta_ra_of_asc_node": 180.7455,
        "meta_arg_of_pericenter": 236.6358,
        "meta_mean_anomaly": 123.4298,
        "meta_ephemeris_type": 0,
        "meta_classification_type": "U",
        "meta_norad_cat_id": 58700,
        "meta_element_set_no": 999,
        "meta_rev_at_epoch": 10926,
        "meta_bstar": 0.00031864577,
        "meta_mean_motion_dot": 7.783e-05,
        "meta_mean_motion_ddot": 0,
        "tle_line1": "1 58700U 24004A   25359.32310514  .00007783  00000+0  31865-3 0  9993",
        "tle_line2": "2 58700  97.4629 180.7455 0006083 236.6358 123.4298 15.24571456109266"
      },
      "geometry": {
        "type": "Point",
        "coordinates": [
          -156.20338080604006,
          -71.21792320181281
        ]
      }
    }
  ]
}